[{"OBJECT_NAME":"STARLINK-6378","OBJECT_ID":"2023-099V","EPOCH":"2026-03-09T12:26:53.115648","MEAN_MOTION":15.02538811,"ECCENTRICITY":0.00014386,"INCLINATION":43.0053,"RA_OF_ASC_NODE":249.666,"ARG_OF_PERICENTER":279.9603,"MEAN_ANOMALY":80.1077,"EPHEMERIS_TYPE":0,"CLASSIFICATION_TYPE":"U","NORAD_CAT_ID":57347,"ELEMENT_SET_NO":999,"REV_AT_EPOCH":14609,"BSTAR":3.5034477e-5,"MEAN_MOTION_DOT":2.7e-6,"MEAN_MOTION_DDOT":0},{"OBJECT_NAME":"OBJECT J","OBJECT_ID":"2025-292J","EPOCH":"2026-03-09T21:49:22.925568","MEAN_MOTION":15.05538385,"ECCENTRICITY":0.00147146,"INCLINATION":97.6397,"RA_OF_ASC_NODE":145.6338,"ARG_OF_PERICENTER":337.2811,"MEAN_ANOMALY":22.7762,"EPHEMERIS_TYPE":0,"CLASSIFICATION_TYPE":"U","NORAD_CAT_ID":67001,"ELEMENT_SET_NO":999,"REV_AT_EPOCH":1350,"BSTAR":0.00042553792,"MEAN_MOTION_DOT":6.079e-5,"MEAN_MOTION_DDOT":0}]
